[{"OBJECT_NAME":"STARLINK-30482","OBJECT_ID":"2023-146S","EPOCH":"2026-03-09T01:17:59.730720","MEAN_MOTION":15.02536077,"ECCENTRICITY":0.00013203,"INCLINATION":43.0044,"RA_OF_ASC_NODE":316.5431,"ARG_OF_PERICENTER":262.5413,"MEAN_ANOMALY":97.528,"EPHEMERIS_TYPE":0,"CLASSIFICATION_TYPE":"U","NORAD_CAT_ID":57907,"ELEMENT_SET_NO":999,"REV_AT_EPOCH":13592,"BSTAR":3.2654863e-5,"MEAN_MOTION_DOT":2.37e-6,"MEAN_MOTION_DDOT":0},{"OBJECT_NAME":"PEGASUS R\/B","OBJECT_ID":"1998-071B","EPOCH":"2026-03-09T18:27:50.570784","MEAN_MOTION":15.03047703,"ECCENTRICITY":0.0004531,"INCLINATION":69.9123,"RA_OF_ASC_NODE":198.9358,"ARG_OF_PERICENTER":7.5622,"MEAN_ANOMALY":352.5606,"EPHEMERIS_TYPE":0,"CLASSIFICATION_TYPE":"U","NORAD_CAT_ID":25561,"ELEMENT_SET_NO":999,"REV_AT_EPOCH":48091,"BSTAR":0.00030278547,"MEAN_MOTION_DOT":3.992e-5,"MEAN_MOTION_DDOT":0}]
